[
  {
    "Address3": null,
    "Zip": 94043,
    "City": "Mountain View",
    "Phone": "650-253-0000",
    "Fax": "650-253-0001",
    "State": "CA",
    "Office": "Headquarters",
    "Address1": "1600 Amphitheatre Parkway",
    "Address2": null
  },
  {
    "Address3": null,
    "Zip": 10011,
    "City": "New York",
    "Phone": "212-565-0000",
    "Fax": "212-565-0001",
    "State": "NY",
    "Office": "New York Sales & Engineering Office",
    "Address1": "76 Ninth Avenue",
    "Address2": null
  },
  {
    "Address3": null,
    "Zip": 48104,
    "City": "Ann Arbor",
    "Phone": "734-332-6500",
    "Fax": "734-332-6501",
    "State": "MI",
    "Office": "Ann Arbor Sales Office",
    "Address1": "201 South Division Street",
    "Address2": null
  },
  {
    "Address3": null,
    "Zip": 30309,
    "City": "Atlanta",
    "Phone": "404-487-9000",
    "Fax": "404-487-9001",
    "State": "GA",
    "Office": "Atlanta Sales & Engineering Office",
    "Address1": "10 10th Street NE",
    "Address2": null
  },
  {
    "Address3": null,
    "Zip": 80302,
    "City": "Boulder",
    "Phone": "303-245-0086",
    "Fax": "303-535-5592",
    "State": "CO",
    "Office": "Boulder Sales & Engineering Office",
    "Address1": "2590 Pearl St.",
    "Address2": null
  },
  {
    "Address3": null,
    "Zip": 2142.0,
    "City": "Cambridge",
    "Phone": "617-682-3635",
    "Fax": "617-249-0199",
    "State": "MA",
    "Office": "Cambridge Sales & Engineering Office",
    "Address1": "5 Cambridge Center",
    "Address2": null
  },
  {
    "Address3": null,
    "Zip": 60610,
    "City": "Chicago",
    "Phone": "312-840-4100",
    "Fax": "312-840-4101",
    "State": "IL",
    "Office": "Chicago Sales & Engineering Office",
    "Address1": "20 West Kinzie St.",
    "Address2": null
  },
  {
    "Address3": null,
    "Zip": 75019,
    "City": "Coppell",
    "Phone": "214-451-4000",
    "Fax": "214-451-4001",
    "State": "TX",
    "Office": "Coppell Sales Office",
    "Address1": "701 Canyon Drive",
    "Address2": null
  },
  {
    "Address3": null,
    "Zip": 48009,
    "City": "Birmingham",
    "Phone": "248-351-6220",
    "Fax": "248-351-6227",
    "State": "MI",
    "Office": "Detroit Sales Office",
    "Address1": "114 Willits Street",
    "Address2": null
  },
  {
    "Address3": null,
    "Zip": 92612,
    "City": "Irvine",
    "Phone": "949-794-1600",
    "Fax": "949-794-1601",
    "State": "CA",
    "Office": "Irvine Sales & Engineering Office",
    "Address1": "19540 Jamboree Road",
    "Address2": null
  },
  {
    "Address3": null,
    "Zip": 15213,
    "City": "Pittsburgh",
    "Phone": null,
    "Fax": null,
    "State": "PA",
    "Office": "Pittsburgh Engineering Office",
    "Address1": "4720 Forbes Avenue",
    "Address2": null
  },
  {
    "Address3": null,
    "Zip": 90401,
    "City": "Santa Monica",
    "Phone": "310-460-4000",
    "Fax": "310-309-6840",
    "State": "CA",
    "Office": "Santa Monica Sales & Engineering Office",
    "Address1": "604 Arizona Avenue",
    "Address2": null
  },
  {
    "Address3": null,
    "Zip": 98033,
    "City": "Kirkland",
    "Phone": "425-739-5600",
    "Fax": "425-739-5601",
    "State": "WA",
    "Office": "Seattle Engineering Office",
    "Address1": "720 4th Avenue",
    "Address2": null
  },
  {
    "Address3": null,
    "Zip": 98103,
    "City": "Seattle",
    "Phone": "206-876-1500",
    "Fax": "206-876-1501",
    "State": "WA",
    "Office": "Seattle Sales Office",
    "Address1": "501 N. 34th Street",
    "Address2": null
  },
  {
    "Address3": null,
    "Zip": 20004,
    "City": "Washington",
    "Phone": "202-742-6520",
    "Fax": null,
    "State": "DC",
    "Office": "Washington D.C. Public Policy Office",
    "Address1": "1001 Pennsylvania Avenue NW",
    "Address2": null
  }
]